{
    "links": {
        "self": "http://www.neowsapp.com/rest/v1/neo/3760490?api_key=iIulBulltgU6a56xZRHN4H3l9WmuAYTsLGpBGhQ2"
    },
    "id": "3760490",
    "neo_reference_id": "3760490",
    "name": "(2016 TY10)",
    "designation": "2016 TY10",
    "nasa_jpl_url": "http://ssd.jpl.nasa.gov/sbdb.cgi?sstr=3760490",
    "absolute_magnitude_h": 24.0,
    "estimated_diameter": {
        "kilometers": {
            "estimated_diameter_min": 0.0421264611,
            "estimated_diameter_max": 0.0941976306
        },
        "meters": {
            "estimated_diameter_min": 42.1264610556,
            "estimated_diameter_max": 94.1976305719
        },
        "miles": {
            "estimated_diameter_min": 0.0261761612,
            "estimated_diameter_max": 0.0585316759
        },
        "feet": {
            "estimated_diameter_min": 138.2101784897,
            "estimated_diameter_max": 309.0473542854
        }
    },
    "is_potentially_hazardous_asteroid": false,
    "close_approach_data": [
        {
            "close_approach_date": "1997-10-07",
            "close_approach_date_full": "1997-Oct-07 06:25",
            "epoch_date_close_approach": 876205500000,
            "relative_velocity": {
                "kilometers_per_second": "12.0322430836",
                "kilometers_per_hour": "43316.0751008538",
                "miles_per_hour": "26914.9245536389"
            },
            "miss_distance": {
                "astronomical": "0.0849506737",
                "lunar": "33.0458120693",
                "kilometers": "12708439.840585019",
                "miles": "7896658.3440265022"
            },
            "orbiting_body": "Earth"
        },
        {
            "close_approach_date": "2011-10-02",
            "close_approach_date_full": "2011-Oct-02 02:55",
            "epoch_date_close_approach": 1317524100000,
            "relative_velocity": {
                "kilometers_per_second": "17.2652615667",
                "kilometers_per_hour": "62154.9416402503",
                "miles_per_hour": "38620.6635986322"
            },
            "miss_distance": {
                "astronomical": "0.363895093",
                "lunar": "141.555191177",
                "kilometers": "54437930.81625191",
                "miles": "33826161.669259958"
            },
            "orbiting_body": "Earth"
        },
        {
            "close_approach_date": "2016-10-07",
            "close_approach_date_full": "2016-Oct-07 02:48",
            "epoch_date_close_approach": 1475808480000,
            "relative_velocity": {
                "kilometers_per_second": "11.8813604965",
                "kilometers_per_hour": "42772.8977875577",
                "miles_per_hour": "26577.4152947188"
            },
            "miss_distance": {
                "astronomical": "0.1002869593",
                "lunar": "39.0116271677",
                "kilometers": "15002715.500056691",
                "miles": "9322255.1330206958"
            },
            "orbiting_body": "Earth"
        },
        {
            "close_approach_date": "2017-03-14",
            "close_approach_date_full": "2017-Mar-14 10:54",
            "epoch_date_close_approach": 1489488840000,
            "relative_velocity": {
                "kilometers_per_second": "13.5613662188",
                "kilometers_per_hour": "48820.918387729",
                "miles_per_hour": "30335.4200948641"
            },
            "miss_distance": {
                "astronomical": "0.2953494178",
                "lunar": "114.8909235242",
                "kilometers": "44183643.808620086",
                "miles": "27454443.1832297468"
            },
            "orbiting_body": "Earth"
        }
    ],
    "orbital_data": {
        "orbit_id": "4",
        "orbit_determination_date": "2017-04-06 08:23:20",
        "first_observation_date": "2016-10-05",
        "last_observation_date": "2016-10-09",
        "data_arc_in_days": 4,
        "observations_used": 45,
        "orbit_uncertainty": "8",
        "minimum_orbit_intersection": ".0824208",
        "jupiter_tisserand_invariant": "5.309",
        "epoch_osculation": "2457668.5",
        "eccentricity": ".1354121139504056",
        "semi_major_axis": "1.170967503611046",
        "inclination": "22.99574328445266",
        "ascending_node_longitude": "191.3060099861786",
        "orbital_period": "462.823807788499",
        "perihelion_distance": "1.012404318579845",
        "perihelion_argument": "244.1737005791535",
        "aphelion_distance": "1.329530688642247",
        "perihelion_time": "2457734.064629648500",
        "mean_anomaly": "309.0016151367774",
        "mean_motion": ".7778337975312468",
        "equinox": "J2000",
        "orbit_class": {
            "orbit_class_type": "APO",
            "orbit_class_description": "Near-Earth asteroid orbits which cross the Earth’s orbit similar to that of 1862 Apollo",
            "orbit_class_range": "a (semi-major axis) > 1.0 AU; q (perihelion) < 1.017 AU"
        }
    },
    "is_sentry_object": false
}